[
    {
        "CCSDS_OMM_VERS": "3.0",
        "COMMENT": "GENERATED VIA SPACE-TRACK.ORG API",
        "CREATION_DATE": "2025-05-03T17:28:03",
        "ORIGINATOR": "18 SPCS",
        "OBJECT_NAME": "COSMOS 2522 (GLONASS)",
        "OBJECT_ID": "2017-055A",
        "CENTER_NAME": "EARTH",
        "REF_FRAME": "TEME",
        "TIME_SYSTEM": "UTC",
        "MEAN_ELEMENT_THEORY": "SGP4",
        "EPOCH": "2025-05-02T23:46:29.452224",
        "MEAN_MOTION": "2.13101780",
        "ECCENTRICITY": "0.00090550",
        "INCLINATION": "64.0757",
        "RA_OF_ASC_NODE": "205.8505",
        "ARG_OF_PERICENTER": "236.8905",
        "MEAN_ANOMALY": "123.0736",
        "EPHEMERIS_TYPE": "0",
        "CLASSIFICATION_TYPE": "U",
        "NORAD_CAT_ID": "42939",
        "ELEMENT_SET_NO": "999",
        "REV_AT_EPOCH": "5923",
        "BSTAR": "0.00000000000000",
        "MEAN_MOTION_DOT": "-0.00000011",
        "MEAN_MOTION_DDOT": "0.0000000000000",
        "SEMIMAJOR_AXIS": "25508.042",
        "PERIOD": "675.733",
        "APOAPSIS": "19153.005",
        "PERIAPSIS": "19106.809",
        "OBJECT_TYPE": "PAYLOAD",
        "RCS_SIZE": "LARGE",
        "COUNTRY_CODE": "CIS",
        "LAUNCH_DATE": "2017-09-22",
        "SITE": "PKMTR",
        "DECAY_DATE": null,
        "FILE": "4717971",
        "GP_ID": "286762375",
        "TLE_LINE0": "0 COSMOS 2522 (GLONASS)",
        "TLE_LINE1": "1 42939U 17055A   25122.99061866 -.00000011  00000-0  00000-0 0  9995",
        "TLE_LINE2": "2 42939  64.0757 205.8505 0009055 236.8905 123.0736  2.13101780 59239"
    }
]